*******************************************************************************
JPL/HORIZONS               978 Aidamina (A922 KE)          2023-Sep-04 11:09:29
Rec #:     978 (+COV) Soln.date: 2023-Aug-25_03:33:53   # obs: 6340 (1906-2023)
 
IAU76/J2000 helio. ecliptic osc. elements (au, days, deg., period=Julian yrs):
 
  EPOCH=  2457506.5 ! 2016-Apr-28.00 (TDB)         Residual RMS= .23458
   EC= .234210838818227    QR= 2.449066997631668   TP= 2457108.5809480147
   OM= 216.634558173882    W=  132.9741526011782   IN= 21.64453804416586
   A= 3.198095666243493    MA= 68.57433912326316   ADIST= 3.947124334855318
   PER= 5.71933            N= .172332385           ANGMOM= .029907248
   DAN= 3.59693            DDN= 2.60652            L= 351.7017303
   B= 15.6566033           MOID= 1.49497998        TP= 2015-Mar-27.0809480147
 
Asteroid physical parameters (km, seconds, rotational period in hours):
   GM= n.a.                RAD= 46.0525            ROTPER= 10.099
   H= 9.58                 G= .150                 B-V= .677
                           ALBEDO= .027            STYP= PF

ASTEROID comments: 
1: soln ref.= JPL#65, OCC=0
2: source=ORB
*******************************************************************************


*******************************************************************************
Ephemeris / API_USER Mon Sep  4 11:09:29 2023 Pasadena, USA      / Horizons
*******************************************************************************
Target body name: 978 Aidamina (A922 KE)          {source: JPL#65}
Center body name: Solar System Barycenter (0)     {source: DE441}
Center-site name: BODY CENTER
*******************************************************************************
Start time      : A.D. 2023-Aug-12 00:00:00.0000 TDB
Stop  time      : A.D. 2023-Aug-13 00:00:00.0000 TDB
Step-size       : 2880 minutes
*******************************************************************************
Center geodetic : 0.0, 0.0, 0.0                   {E-lon(deg),Lat(deg),Alt(km)}
Center cylindric: 0.0, 0.0, 0.0                   {E-lon(deg),Dxy(km),Dz(km)}
Center radii    : (undefined)
Small perturbers: Yes                             {source: SB441-N16}
Output units    : KM-S
Calendar mode   : Mixed Julian/Gregorian
Output type     : GEOMETRIC cartesian states
Output format   : 2 (position and velocity)
Reference frame : Ecliptic of J2000.0
*******************************************************************************
Initial IAU76/J2000 heliocentric ecliptic osculating elements (au, days, deg.):
  EPOCH=  2457506.5 ! 2016-Apr-28.00 (TDB)         Residual RMS= .23458        
   EC= .234210838818227    QR= 2.449066997631668   TP= 2457108.5809480147      
   OM= 216.634558173882    W=  132.9741526011782   IN= 21.64453804416586       
  Equivalent ICRF heliocentric cartesian coordinates (au, au/d):
   X= 3.612745376024727E-01  Y= 3.045969593830876E+00  Z= 3.900319891184367E-01
  VX=-9.097777864405609E-03 VY= 3.637715261878921E-03 VZ=-1.695221616400891E-03
Asteroid physical parameters (km, seconds, rotational period in hours):        
   GM= n.a.                RAD= 46.0525            ROTPER= 10.099              
   H= 9.58                 G= .150                 B-V= .677                   
                           ALBEDO= .027            STYP= PF                    
*******************************************************************************
JDTDB
   X     Y     Z
   VX    VY    VZ
*******************************************************************************
$$SOE
2460168.500000000 = A.D. 2023-Aug-12 00:00:00.0000 TDB 
 X =-5.368088027465660E+08 Y = 1.649442735069513E+08 Z =-1.787781572702459E+08
 VX=-5.148641153396067E+00 VY=-1.189742487992000E+01 VZ= 2.567620478737865E+00
$$EOE
*******************************************************************************
 
TIME

  Barycentric Dynamical Time ("TDB" or T_eph) output was requested. This
continuous coordinate time is equivalent to the relativistic proper time
of a clock at rest in a reference frame co-moving with the solar system
barycenter but outside the system's gravity well. It is the independent
variable in the solar system relativistic equations of motion.

  TDB runs at a uniform rate of one SI second per second and is independent
of irregularities in Earth's rotation.
 
CALENDAR SYSTEM

  Mixed calendar mode was active such that calendar dates after AD 1582-Oct-15
(if any) are in the modern Gregorian system. Dates prior to 1582-Oct-5 (if any)
are in the Julian calendar system, which is automatically extended for dates
prior to its adoption on 45-Jan-1 BC.  The Julian calendar is useful for
matching historical dates. The Gregorian calendar more accurately corresponds
to the Earth's orbital motion and seasons. A "Gregorian-only" calendar mode is
available if such physical events are the primary interest.

REFERENCE FRAME AND COORDINATES

  Ecliptic at the standard reference epoch

    Reference epoch: J2000.0
    X-Y plane: adopted Earth orbital plane at the reference epoch
               Note: IAU76 obliquity of 84381.448 arcseconds wrt ICRF X-Y plane
    X-axis   : ICRF
    Z-axis   : perpendicular to the X-Y plane in the directional (+ or -) sense
               of Earth's north pole at the reference epoch.

  Symbol meaning:

    JDTDB    Julian Day Number, Barycentric Dynamical Time
      X      X-component of position vector (km)
      Y      Y-component of position vector (km)
      Z      Z-component of position vector (km)
      VX     X-component of velocity vector (km/sec)                           
      VY     Y-component of velocity vector (km/sec)                           
      VZ     Z-component of velocity vector (km/sec)                           

ABERRATIONS AND CORRECTIONS

 Geometric state vectors have NO corrections or aberrations applied.

Computations by ...

    Solar System Dynamics Group, Horizons On-Line Ephemeris System
    4800 Oak Grove Drive, Jet Propulsion Laboratory
    Pasadena, CA  91109   USA

    General site: https://ssd.jpl.nasa.gov/
    Mailing list: https://ssd.jpl.nasa.gov/email_list.html
    System news : https://ssd.jpl.nasa.gov/horizons/news.html
    User Guide  : https://ssd.jpl.nasa.gov/horizons/manual.html
    Connect     : browser        https://ssd.jpl.nasa.gov/horizons/app.html#/x
                  API            https://ssd-api.jpl.nasa.gov/doc/horizons.html
                  command-line   telnet ssd.jpl.nasa.gov 6775
                  e-mail/batch   https://ssd.jpl.nasa.gov/ftp/ssd/hrzn_batch.txt
                  scripts        https://ssd.jpl.nasa.gov/ftp/ssd/SCRIPTS
    Author      : Jon.D.Giorgini@jpl.nasa.gov
*******************************************************************************
